{
  "type": "FeatureCollection",
  "features": [
    {
      "type": "Feature",
      "properties": {
        "norad_id": 31516,
        "name": "FENGYUN 1C DEB",
        "group": "fengyun-1c-debris",
        "lat": -24.271932533176596,
        "lon": 97.5095158421018,
        "alt_km": 775.719495579996,
        "timestamp": "2025-12-03T15:48:03.353322+00:00",
        "meta_object_name": "FENGYUN 1C DEB",
        "meta_object_id": "1999-025BXF",
        "meta_epoch": "2025-12-01T06:46:22.370304",
        "meta_mean_motion": 14.25365436,
        "meta_eccentricity": 0.0148139,
        "meta_inclination": 98.832,
        "meta_ra_of_asc_node": 91.0964,
        "meta_arg_of_pericenter": 271.949,
        "meta_mean_anomaly": 115.971,
        "meta_ephemeris_type": 0,
        "meta_classification_type": "U",
        "meta_norad_cat_id": 31516,
        "meta_element_set_no": 999,
        "meta_rev_at_epoch": 96329,
        "meta_bstar": 0.00049633,
        "meta_mean_motion_dot": 1.264e-05,
        "meta_mean_motion_ddot": 0,
        "tle_line1": "1 31516U 99025BXF 25335.28220336  .00001264  00000+0  49633-3 0  9995",
        "tle_line2": "2 31516  98.8320  91.0964 0148139 271.9490 115.9710 14.25365436963297"
      },
      "geometry": {
        "type": "Point",
        "coordinates": [
          97.5095158421018,
          -24.271932533176596
        ]
      }
    },
    {
      "type": "Feature",
      "properties": {
        "norad_id": 31519,
        "name": "FENGYUN 1C DEB",
        "group": "fengyun-1c-debris",
        "lat": 21.048424175761703,
        "lon": 157.77161919417549,
        "alt_km": 827.0819639246247,
        "timestamp": "2025-12-03T15:48:03.353331+00:00",
        "meta_object_name": "FENGYUN 1C DEB",
        "meta_object_id": "1999-025BXJ",
        "meta_epoch": "2025-12-02T05:18:38.960928",
        "meta_mean_motion": 14.23363236,
        "meta_eccentricity": 0.0051768,
        "meta_inclination": 98.5732,
        "meta_ra_of_asc_node": 333.0436,
        "meta_arg_of_pericenter": 273.8971,
        "meta_mean_anomaly": 85.629,
        "meta_ephemeris_type": 0,
        "meta_classification_type": "U",
        "meta_norad_cat_id": 31519,
        "meta_element_set_no": 999,
        "meta_rev_at_epoch": 64615,
        "meta_bstar": 0.00061131,
        "meta_mean_motion_dot": 1.362e-05,
        "meta_mean_motion_ddot": 0,
        "tle_line1": "1 31519U 99025BXJ 25336.22128427  .00001362  00000+0  61131-3 0  9997",
        "tle_line2": "2 31519  98.5732 333.0436 0051768 273.8971  85.6290 14.23363236646156"
      },
      "geometry": {
        "type": "Point",
        "coordinates": [
          157.77161919417549,
          21.048424175761703
        ]
      }
    },
    {
      "type": "Feature",
      "properties": {
        "norad_id": 31522,
        "name": "FENGYUN 1C DEB",
        "group": "fengyun-1c-debris",
        "lat": 32.2238965448351,
        "lon": -178.21013385902492,
        "alt_km": 871.9558903589586,
        "timestamp": "2025-12-03T15:48:03.353339+00:00",
        "meta_object_name": "FENGYUN 1C DEB",
        "meta_object_id": "1999-025BXM",
        "meta_epoch": "2025-12-02T11:43:53.698944",
        "meta_mean_motion": 14.03969195,
        "meta_eccentricity": 0.00429805,
        "meta_inclination": 98.7082,
        "meta_ra_of_asc_node": 355.1255,
        "meta_arg_of_pericenter": 229.3974,
        "meta_mean_anomaly": 130.3451,
        "meta_ephemeris_type": 0,
        "meta_classification_type": "U",
        "meta_norad_cat_id": 31522,
        "meta_element_set_no": 999,
        "meta_rev_at_epoch": 94852,
        "meta_bstar": 0.00086354754,
        "meta_mean_motion_dot": 1.334e-05,
        "meta_mean_motion_ddot": 0,
        "tle_line1": "1 31522U 99025BXM 25336.48881596  .00001334  00000+0  86355-3 0  9996",
        "tle_line2": "2 31522  98.7082 355.1255 0042980 229.3974 130.3451 14.03969195948526"
      },
      "geometry": {
        "type": "Point",
        "coordinates": [
          -178.21013385902492,
          32.2238965448351
        ]
      }
    },
    {
      "type": "Feature",
      "properties": {
        "norad_id": 31523,
        "name": "FENGYUN 1C DEB",
        "group": "fengyun-1c-debris",
        "lat": 29.27813544174097,
        "lon": 20.429881094654334,
        "alt_km": 852.1919050457782,
        "timestamp": "2025-12-03T15:48:03.353348+00:00",
        "meta_object_name": "FENGYUN 1C DEB",
        "meta_object_id": "1999-025BXN",
        "meta_epoch": "2025-12-03T02:13:03.454176",
        "meta_mean_motion": 14.1385847,
        "meta_eccentricity": 0.00391375,
        "meta_inclination": 98.759,
        "meta_ra_of_asc_node": 24.8343,
        "meta_arg_of_pericenter": 136.9105,
        "meta_mean_anomaly": 254.1578,
        "meta_ephemeris_type": 0,
        "meta_classification_type": "U",
        "meta_norad_cat_id": 31523,
        "meta_element_set_no": 999,
        "meta_rev_at_epoch": 95871,
        "meta_bstar": 3.7307448e-05,
        "meta_mean_motion_dot": 2.8e-07,
        "meta_mean_motion_ddot": 0,
        "tle_line1": "1 31523U 99025BXN 25337.09240109  .00000028  00000+0  37307-4 0  9997",
        "tle_line2": "2 31523  98.7590  24.8343 0039137 136.9105 254.1578 14.13858470958719"
      },
      "geometry": {
        "type": "Point",
        "coordinates": [
          20.429881094654334,
          29.27813544174097
        ]
      }
    },
    {
      "type": "Feature",
      "properties": {
        "norad_id": 31527,
        "name": "FENGYUN 1C DEB",
        "group": "fengyun-1c-debris",
        "lat": 5.877579847441557,
        "lon": -34.54637139763155,
        "alt_km": 1459.4027688897095,
        "timestamp": "2025-12-03T15:48:03.353357+00:00",
        "meta_object_name": "FENGYUN 1C DEB",
        "meta_object_id": "1999-025BXS",
        "meta_epoch": "2025-11-28T16:57:37.524384",
        "meta_mean_motion": 13.23385857,
        "meta_eccentricity": 0.04495652,
        "meta_inclination": 98.8931,
        "meta_ra_of_asc_node": 140.2922,
        "meta_arg_of_pericenter": 334.6734,
        "meta_mean_anomaly": 23.2945,
        "meta_ephemeris_type": 0,
        "meta_classification_type": "U",
        "meta_norad_cat_id": 31527,
        "meta_element_set_no": 999,
        "meta_rev_at_epoch": 90004,
        "meta_bstar": 0.00062155533,
        "meta_mean_motion_dot": 4.13e-06,
        "meta_mean_motion_ddot": 0,
        "tle_line1": "1 31527U 99025BXS 25332.70668431  .00000413  00000+0  62156-3 0  9993",
        "tle_line2": "2 31527  98.8931 140.2922 0449565 334.6734  23.2945 13.23385857900044"
      },
      "geometry": {
        "type": "Point",
        "coordinates": [
          -34.54637139763155,
          5.877579847441557
        ]
      }
    },
    {
      "type": "Feature",
      "properties": {
        "norad_id": 31531,
        "name": "FENGYUN 1C DEB",
        "group": "fengyun-1c-debris",
        "lat": 23.11807195522047,
        "lon": 19.065075480497004,
        "alt_km": 761.3058502637041,
        "timestamp": "2025-12-03T15:48:03.353366+00:00",
        "meta_object_name": "FENGYUN 1C DEB",
        "meta_object_id": "1999-025BXW",
        "meta_epoch": "2025-12-02T21:17:34.759104",
        "meta_mean_motion": 14.35533889,
        "meta_eccentricity": 0.0244102,
        "meta_inclination": 98.3845,
        "meta_ra_of_asc_node": 21.9246,
        "meta_arg_of_pericenter": 298.1694,
        "meta_mean_anomaly": 59.5027,
        "meta_ephemeris_type": 0,
        "meta_classification_type": "U",
        "meta_norad_cat_id": 31531,
        "meta_element_set_no": 999,
        "meta_rev_at_epoch": 63793,
        "meta_bstar": 0.0010385221,
        "meta_mean_motion_dot": 4.144e-05,
        "meta_mean_motion_ddot": 0,
        "tle_line1": "1 31531U 99025BXW 25336.88720786  .00004144  00000+0  10385-2 0  9994",
        "tle_line2": "2 31531  98.3845  21.9246 0244102 298.1694  59.5027 14.35533889637933"
      },
      "geometry": {
        "type": "Point",
        "coordinates": [
          19.065075480497004,
          23.11807195522047
        ]
      }
    },
    {
      "type": "Feature",
      "properties": {
        "norad_id": 31533,
        "name": "FENGYUN 1C DEB",
        "group": "fengyun-1c-debris",
        "lat": 80.62763363245611,
        "lon": 156.65208653197647,
        "alt_km": 777.0596752226893,
        "timestamp": "2025-12-03T15:48:03.353375+00:00",
        "meta_object_name": "FENGYUN 1C DEB",
        "meta_object_id": "1999-025BXY",
        "meta_epoch": "2025-12-02T10:48:09.376992",
        "meta_mean_motion": 14.27593289,
        "meta_eccentricity": 0.00661534,
        "meta_inclination": 98.9605,
        "meta_ra_of_asc_node": 228.3398,
        "meta_arg_of_pericenter": 19.1557,
        "meta_mean_anomaly": 341.2088,
        "meta_ephemeris_type": 0,
        "meta_classification_type": "U",
        "meta_norad_cat_id": 31533,
        "meta_element_set_no": 999,
        "meta_rev_at_epoch": 65976,
        "meta_bstar": 0.00054806996,
        "meta_mean_motion_dot": 1.334e-05,
        "meta_mean_motion_ddot": 0,
        "tle_line1": "1 31533U 99025BXY 25336.45010853  .00001334  00000+0  54807-3 0  9992",
        "tle_line2": "2 31533  98.9605 228.3398 0066153  19.1557 341.2088 14.27593289659767"
      },
      "geometry": {
        "type": "Point",
        "coordinates": [
          156.65208653197647,
          80.62763363245611
        ]
      }
    }
  ]
}